CCSDS_OMM_VERS = 2.0
CREATION_DATE  = 
ORIGINATOR     = 

OBJECT_NAME    = COSMOS 2242
OBJECT_ID      = 1993-024A
CENTER_NAME    = EARTH
REF_FRAME      = TEME
TIME_SYSTEM    = UTC
MEAN_ELEMENT_THEORY = SGP/SGP4

EPOCH          = 2026-03-30T03:53:18.923712
MEAN_MOTION    = 14.96637351
ECCENTRICITY   = .0015178
INCLINATION    = 82.5163
RA_OF_ASC_NODE = 247.1288
ARG_OF_PERICENTER = 233.6294
MEAN_ANOMALY   = 126.3528

EPHEMERIS_TYPE = 0
CLASSIFICATION_TYPE = U
NORAD_CAT_ID   = 22626
ELEMENT_SET_NO = 999
REV_AT_EPOCH   = 78345
BSTAR          = .26311E-3
MEAN_MOTION_DOT = .303E-4
MEAN_MOTION_DDOT = 0

CCSDS_OMM_VERS = 2.0
CREATION_DATE  = 
ORIGINATOR     = 

OBJECT_NAME    = SL-16 R/B
OBJECT_ID      = 1993-059B
CENTER_NAME    = EARTH
REF_FRAME      = TEME
TIME_SYSTEM    = UTC
MEAN_ELEMENT_THEORY = SGP/SGP4

EPOCH          = 2026-03-30T02:04:42.322944
MEAN_MOTION    = 14.17234703
ECCENTRICITY   = .0017345
INCLINATION    = 70.9916
RA_OF_ASC_NODE = 328.1164
ARG_OF_PERICENTER = 186.8556
MEAN_ANOMALY   = 173.2333

EPHEMERIS_TYPE = 0
CLASSIFICATION_TYPE = U
NORAD_CAT_ID   = 22803
ELEMENT_SET_NO = 999
REV_AT_EPOCH   = 68242
BSTAR          = -.65123E-4
MEAN_MOTION_DOT = -.18E-5
MEAN_MOTION_DDOT = 0

CCSDS_OMM_VERS = 2.0
CREATION_DATE  = 
ORIGINATOR     = 

OBJECT_NAME    = ARIANE 40 R/B
OBJECT_ID      = 1993-061H
CENTER_NAME    = EARTH
REF_FRAME      = TEME
TIME_SYSTEM    = UTC
MEAN_ELEMENT_THEORY = SGP/SGP4

EPOCH          = 2026-03-30T03:48:44.338464
MEAN_MOTION    = 14.32871839
ECCENTRICITY   = .0010073
INCLINATION    = 98.4878
RA_OF_ASC_NODE = 157.6388
ARG_OF_PERICENTER = 218.2357
MEAN_ANOMALY   = 141.8114

EPHEMERIS_TYPE = 0
CLASSIFICATION_TYPE = U
NORAD_CAT_ID   = 22830
ELEMENT_SET_NO = 999
REV_AT_EPOCH   = 69703
BSTAR          = .10717E-3
MEAN_MOTION_DOT = .25E-5
MEAN_MOTION_DDOT = 0

CCSDS_OMM_VERS = 2.0
CREATION_DATE  = 
ORIGINATOR     = 

OBJECT_NAME    = COSMOS 2278
OBJECT_ID      = 1994-023A
CENTER_NAME    = EARTH
REF_FRAME      = TEME
TIME_SYSTEM    = UTC
MEAN_ELEMENT_THEORY = SGP/SGP4

EPOCH          = 2026-03-30T05:58:34.605696
MEAN_MOTION    = 14.14375154
ECCENTRICITY   = .00091941
INCLINATION    = 71.0513
RA_OF_ASC_NODE = 132.0867
ARG_OF_PERICENTER = 341.7881
MEAN_ANOMALY   = 18.2911

EPHEMERIS_TYPE = 0
CLASSIFICATION_TYPE = U
NORAD_CAT_ID   = 23087
ELEMENT_SET_NO = 999
REV_AT_EPOCH   = 64771
BSTAR          = -.60799014E-4
MEAN_MOTION_DOT = -.164E-5
MEAN_MOTION_DDOT = 0

CCSDS_OMM_VERS = 2.0
CREATION_DATE  = 
ORIGINATOR     = 

OBJECT_NAME    = SL-16 R/B
OBJECT_ID      = 1994-023B
CENTER_NAME    = EARTH
REF_FRAME      = TEME
TIME_SYSTEM    = UTC
MEAN_ELEMENT_THEORY = SGP/SGP4

EPOCH          = 2026-03-30T05:10:24.067776
MEAN_MOTION    = 14.15016464
ECCENTRICITY   = .00054864
INCLINATION    = 71.0021
RA_OF_ASC_NODE = 27.7789
ARG_OF_PERICENTER = 266.8060
MEAN_ANOMALY   = 93.2435

EPHEMERIS_TYPE = 0
CLASSIFICATION_TYPE = U
NORAD_CAT_ID   = 23088
ELEMENT_SET_NO = 999
REV_AT_EPOCH   = 64899
BSTAR          = .19728849E-3
MEAN_MOTION_DOT = .334E-5
MEAN_MOTION_DDOT = 0

CCSDS_OMM_VERS = 2.0
CREATION_DATE  = 
ORIGINATOR     = 

OBJECT_NAME    = SL-16 R/B
OBJECT_ID      = 1994-074B
CENTER_NAME    = EARTH
REF_FRAME      = TEME
TIME_SYSTEM    = UTC
MEAN_ELEMENT_THEORY = SGP/SGP4

EPOCH          = 2026-03-30T01:48:49.584960
MEAN_MOTION    = 14.79431244
ECCENTRICITY   = .00073721
INCLINATION    = 97.7078
RA_OF_ASC_NODE = 119.0652
ARG_OF_PERICENTER = 144.7908
MEAN_ANOMALY   = 231.2608

EPHEMERIS_TYPE = 0
CLASSIFICATION_TYPE = U
NORAD_CAT_ID   = 23343
ELEMENT_SET_NO = 999
REV_AT_EPOCH   = 69026
BSTAR          = .88059943E-4
MEAN_MOTION_DOT = .608E-5
MEAN_MOTION_DDOT = 0

CCSDS_OMM_VERS = 2.0
CREATION_DATE  = 
ORIGINATOR     = 

OBJECT_NAME    = SL-16 R/B
OBJECT_ID      = 1994-077B
CENTER_NAME    = EARTH
REF_FRAME      = TEME
TIME_SYSTEM    = UTC
MEAN_ELEMENT_THEORY = SGP/SGP4

EPOCH          = 2026-03-30T01:08:51.285120
MEAN_MOTION    = 14.15569205
ECCENTRICITY   = .00018744
INCLINATION    = 70.9832
RA_OF_ASC_NODE = 309.6613
ARG_OF_PERICENTER = 196.4074
MEAN_ANOMALY   = 163.6988

EPHEMERIS_TYPE = 0
CLASSIFICATION_TYPE = U
NORAD_CAT_ID   = 23405
ELEMENT_SET_NO = 999
REV_AT_EPOCH   = 61911
BSTAR          = -.20585997E-4
MEAN_MOTION_DOT = -.88E-6
MEAN_MOTION_DDOT = 0

CCSDS_OMM_VERS = 2.0
CREATION_DATE  = 
ORIGINATOR     = 

OBJECT_NAME    = ARIANE 40+ R/B
OBJECT_ID      = 1995-021B
CENTER_NAME    = EARTH
REF_FRAME      = TEME
TIME_SYSTEM    = UTC
MEAN_ELEMENT_THEORY = SGP/SGP4

EPOCH          = 2026-03-30T02:25:38.036352
MEAN_MOTION    = 14.39787115
ECCENTRICITY   = .00079073
INCLINATION    = 98.4460
RA_OF_ASC_NODE = 160.3036
ARG_OF_PERICENTER = 83.9539
MEAN_ANOMALY   = 294.2080

EPHEMERIS_TYPE = 0
CLASSIFICATION_TYPE = U
NORAD_CAT_ID   = 23561
ELEMENT_SET_NO = 999
REV_AT_EPOCH   = 62218
BSTAR          = .12713721E-3
MEAN_MOTION_DOT = .355E-5
MEAN_MOTION_DDOT = 0

CCSDS_OMM_VERS = 2.0
CREATION_DATE  = 
ORIGINATOR     = 

OBJECT_NAME    = SL-16 R/B
OBJECT_ID      = 1995-058B
CENTER_NAME    = EARTH
REF_FRAME      = TEME
TIME_SYSTEM    = UTC
MEAN_ELEMENT_THEORY = SGP/SGP4

EPOCH          = 2026-03-30T04:43:51.811680
MEAN_MOTION    = 14.15498694
ECCENTRICITY   = .00101444
INCLINATION    = 71.0200
RA_OF_ASC_NODE = 137.2030
ARG_OF_PERICENTER = 87.8928
MEAN_ANOMALY   = 272.3357

EPHEMERIS_TYPE = 0
CLASSIFICATION_TYPE = U
NORAD_CAT_ID   = 23705
ELEMENT_SET_NO = 999
REV_AT_EPOCH   = 57075
BSTAR          = -.92999721E-4
MEAN_MOTION_DOT = -.229E-5
MEAN_MOTION_DDOT = 0

CCSDS_OMM_VERS = 2.0
CREATION_DATE  = 
ORIGINATOR     = 

OBJECT_NAME    = SL-16 R/B
OBJECT_ID      = 1996-051B
CENTER_NAME    = EARTH
REF_FRAME      = TEME
TIME_SYSTEM    = UTC
MEAN_ELEMENT_THEORY = SGP/SGP4

EPOCH          = 2026-03-30T05:00:02.788704
MEAN_MOTION    = 14.12421571
ECCENTRICITY   = .00134152
INCLINATION    = 70.7584
RA_OF_ASC_NODE = 131.8106
ARG_OF_PERICENTER = 114.8070
MEAN_ANOMALY   = 245.4446

EPHEMERIS_TYPE = 0
CLASSIFICATION_TYPE = U
NORAD_CAT_ID   = 24298
ELEMENT_SET_NO = 999
REV_AT_EPOCH   = 52454
BSTAR          = .94692021E-4
MEAN_MOTION_DOT = .126E-5
MEAN_MOTION_DDOT = 0

CCSDS_OMM_VERS = 2.0
CREATION_DATE  = 
ORIGINATOR     = 

OBJECT_NAME    = ORBVIEW 2 (SEASTAR)
OBJECT_ID      = 1997-037A
CENTER_NAME    = EARTH
REF_FRAME      = TEME
TIME_SYSTEM    = UTC
MEAN_ELEMENT_THEORY = SGP/SGP4

EPOCH          = 2026-03-30T04:32:09.382272
MEAN_MOTION    = 14.35509338
ECCENTRICITY   = .0002335
INCLINATION    = 98.8603
RA_OF_ASC_NODE = 254.0478
ARG_OF_PERICENTER = 26.7023
MEAN_ANOMALY   = 333.4281

EPHEMERIS_TYPE = 0
CLASSIFICATION_TYPE = U
NORAD_CAT_ID   = 24883
ELEMENT_SET_NO = 999
REV_AT_EPOCH   = 51141
BSTAR          = .14156707E-3
MEAN_MOTION_DOT = .361E-5
MEAN_MOTION_DDOT = 0

CCSDS_OMM_VERS = 2.0
CREATION_DATE  = 
ORIGINATOR     = 

OBJECT_NAME    = SL-16 R/B
OBJECT_ID      = 1998-043G
CENTER_NAME    = EARTH
REF_FRAME      = TEME
TIME_SYSTEM    = UTC
MEAN_ELEMENT_THEORY = SGP/SGP4

EPOCH          = 2026-03-30T03:34:41.705184
MEAN_MOTION    = 14.26054589
ECCENTRICITY   = .00091565
INCLINATION    = 98.8288
RA_OF_ASC_NODE = 42.6619
ARG_OF_PERICENTER = 320.3809
MEAN_ANOMALY   = 39.6701

EPHEMERIS_TYPE = 0
CLASSIFICATION_TYPE = U
NORAD_CAT_ID   = 25400
ELEMENT_SET_NO = 999
REV_AT_EPOCH   = 44190
BSTAR          = .56728466E-4
MEAN_MOTION_DOT = .9E-6
MEAN_MOTION_DDOT = 0

